[{"OBJECT_NAME":"STARLINK-35271","OBJECT_ID":"2025-218X","EPOCH":"2026-03-09T14:56:33.689760","MEAN_MOTION":15.05655457,"ECCENTRICITY":0.0002154,"INCLINATION":97.6024,"RA_OF_ASC_NODE":292.9511,"ARG_OF_PERICENTER":90.931,"MEAN_ANOMALY":269.2163,"EPHEMERIS_TYPE":0,"CLASSIFICATION_TYPE":"U","NORAD_CAT_ID":65812,"ELEMENT_SET_NO":999,"REV_AT_EPOCH":2496,"BSTAR":0.00026409,"MEAN_MOTION_DOT":3.752e-5,"MEAN_MOTION_DDOT":0},{"OBJECT_NAME":"COSMOS 2251 DEB","OBJECT_ID":"1993-036BC","EPOCH":"2026-03-09T15:03:07.178688","MEAN_MOTION":15.0931248,"ECCENTRICITY":0.0027782,"INCLINATION":73.8339,"RA_OF_ASC_NODE":121.9492,"ARG_OF_PERICENTER":197.5511,"MEAN_ANOMALY":285.2146,"EPHEMERIS_TYPE":0,"CLASSIFICATION_TYPE":"U","NORAD_CAT_ID":33811,"ELEMENT_SET_NO":999,"REV_AT_EPOCH":91327,"BSTAR":0.0014101,"MEAN_MOTION_DOT":0.00022722,"MEAN_MOTION_DDOT":0}]
